<?xml version="1.0" encoding="UTF-8"?>
<ndm xmlns:xsi="http://www.w3.org/2001/XMLSchema-instance" xsi:noNamespaceSchemaLocation="https://sanaregistry.org/r/ndmxml_unqualified/ndmxml-2.0.0-master-2.0.xsd">
<omm id="CCSDS_OMM_VERS" version="2.0">
<header><CREATION_DATE/><ORIGINATOR/></header><body><segment><metadata><OBJECT_NAME>KUIPER-00016</OBJECT_NAME><OBJECT_ID>2025-088J</OBJECT_ID><CENTER_NAME>EARTH</CENTER_NAME><REF_FRAME>TEME</REF_FRAME><TIME_SYSTEM>UTC</TIME_SYSTEM><MEAN_ELEMENT_THEORY>SGP4</MEAN_ELEMENT_THEORY></metadata><data><meanElements><EPOCH>2025-12-26T12:11:03.344640</EPOCH><MEAN_MOTION>14.79926895</MEAN_MOTION><ECCENTRICITY>.00130288</ECCENTRICITY><INCLINATION>51.9006</INCLINATION><RA_OF_ASC_NODE>75.2075</RA_OF_ASC_NODE><ARG_OF_PERICENTER>182.0835</ARG_OF_PERICENTER><MEAN_ANOMALY>178.0076</MEAN_ANOMALY></meanElements><tleParameters><EPHEMERIS_TYPE>0</EPHEMERIS_TYPE><CLASSIFICATION_TYPE>U</CLASSIFICATION_TYPE><NORAD_CAT_ID>63732</NORAD_CAT_ID><ELEMENT_SET_NO>999</ELEMENT_SET_NO><REV_AT_EPOCH>3649</REV_AT_EPOCH><BSTAR>.89804313E-4</BSTAR><MEAN_MOTION_DOT>.461E-5</MEAN_MOTION_DOT><MEAN_MOTION_DDOT>0</MEAN_MOTION_DDOT></tleParameters></data></segment></body></omm>
<omm id="CCSDS_OMM_VERS" version="2.0">
<header><CREATION_DATE/><ORIGINATOR/></header><body><segment><metadata><OBJECT_NAME>KUIPER-00018</OBJECT_NAME><OBJECT_ID>2025-088K</OBJECT_ID><CENTER_NAME>EARTH</CENTER_NAME><REF_FRAME>TEME</REF_FRAME><TIME_SYSTEM>UTC</TIME_SYSTEM><MEAN_ELEMENT_THEORY>SGP4</MEAN_ELEMENT_THEORY></metadata><data><meanElements><EPOCH>2025-12-26T14:06:07.130592</EPOCH><MEAN_MOTION>14.79992639</MEAN_MOTION><ECCENTRICITY>.00129813</ECCENTRICITY><INCLINATION>51.9021</INCLINATION><RA_OF_ASC_NODE>63.8083</RA_OF_ASC_NODE><ARG_OF_PERICENTER>205.9187</ARG_OF_PERICENTER><MEAN_ANOMALY>154.1127</MEAN_ANOMALY></meanElements><tleParameters><EPHEMERIS_TYPE>0</EPHEMERIS_TYPE><CLASSIFICATION_TYPE>U</CLASSIFICATION_TYPE><NORAD_CAT_ID>63733</NORAD_CAT_ID><ELEMENT_SET_NO>999</ELEMENT_SET_NO><REV_AT_EPOCH>3666</REV_AT_EPOCH><BSTAR>.8328898E-3</BSTAR><MEAN_MOTION_DOT>.6149E-4</MEAN_MOTION_DOT><MEAN_MOTION_DDOT>0</MEAN_MOTION_DDOT></tleParameters></data></segment></body></omm>
<omm id="CCSDS_OMM_VERS" version="2.0">
<header><CREATION_DATE/><ORIGINATOR/></header><body><segment><metadata><OBJECT_NAME>KUIPER-00019</OBJECT_NAME><OBJECT_ID>2025-088L</OBJECT_ID><CENTER_NAME>EARTH</CENTER_NAME><REF_FRAME>TEME</REF_FRAME><TIME_SYSTEM>UTC</TIME_SYSTEM><MEAN_ELEMENT_THEORY>SGP4</MEAN_ELEMENT_THEORY></metadata><data><meanElements><EPOCH>2025-12-26T14:07:47.313120</EPOCH><MEAN_MOTION>14.79931632</MEAN_MOTION><ECCENTRICITY>.00086554</ECCENTRICITY><INCLINATION>51.8996</INCLINATION><RA_OF_ASC_NODE>62.3490</RA_OF_ASC_NODE><ARG_OF_PERICENTER>215.9732</ARG_OF_PERICENTER><MEAN_ANOMALY>144.0649</MEAN_ANOMALY></meanElements><tleParameters><EPHEMERIS_TYPE>0</EPHEMERIS_TYPE><CLASSIFICATION_TYPE>U</CLASSIFICATION_TYPE><NORAD_CAT_ID>63734</NORAD_CAT_ID><ELEMENT_SET_NO>999</ELEMENT_SET_NO><REV_AT_EPOCH>3668</REV_AT_EPOCH><BSTAR>.50973724E-3</BSTAR><MEAN_MOTION_DOT>.3667E-4</MEAN_MOTION_DOT><MEAN_MOTION_DDOT>0</MEAN_MOTION_DDOT></tleParameters></data></segment></body></omm>
<omm id="CCSDS_OMM_VERS" version="2.0">
<header><CREATION_DATE/><ORIGINATOR/></header><body><segment><metadata><OBJECT_NAME>KUIPER-00020</OBJECT_NAME><OBJECT_ID>2025-088M</OBJECT_ID><CENTER_NAME>EARTH</CENTER_NAME><REF_FRAME>TEME</REF_FRAME><TIME_SYSTEM>UTC</TIME_SYSTEM><MEAN_ELEMENT_THEORY>SGP4</MEAN_ELEMENT_THEORY></metadata><data><meanElements><EPOCH>2025-12-26T14:02:12.883776</EPOCH><MEAN_MOTION>14.79955747</MEAN_MOTION><ECCENTRICITY>.0008266</ECCENTRICITY><INCLINATION>51.9047</INCLINATION><RA_OF_ASC_NODE>66.3541</RA_OF_ASC_NODE><ARG_OF_PERICENTER>199.1229</ARG_OF_PERICENTER><MEAN_ANOMALY>160.9424</MEAN_ANOMALY></meanElements><tleParameters><EPHEMERIS_TYPE>0</EPHEMERIS_TYPE><CLASSIFICATION_TYPE>U</CLASSIFICATION_TYPE><NORAD_CAT_ID>63735</NORAD_CAT_ID><ELEMENT_SET_NO>999</ELEMENT_SET_NO><REV_AT_EPOCH>3683</REV_AT_EPOCH><BSTAR>-.27457305E-3</BSTAR><MEAN_MOTION_DOT>-.2318E-4</MEAN_MOTION_DOT><MEAN_MOTION_DDOT>0</MEAN_MOTION_DDOT></tleParameters></data></segment></body></omm>
<omm id="CCSDS_OMM_VERS" version="2.0">
<header><CREATION_DATE/><ORIGINATOR/></header><body><segment><metadata><OBJECT_NAME>KUIPER-00021</OBJECT_NAME><OBJECT_ID>2025-088N</OBJECT_ID><CENTER_NAME>EARTH</CENTER_NAME><REF_FRAME>TEME</REF_FRAME><TIME_SYSTEM>UTC</TIME_SYSTEM><MEAN_ELEMENT_THEORY>SGP4</MEAN_ELEMENT_THEORY></metadata><data><meanElements><EPOCH>2025-12-26T10:45:20.816640</EPOCH><MEAN_MOTION>14.79960494</MEAN_MOTION><ECCENTRICITY>.00069613</ECCENTRICITY><INCLINATION>51.9018</INCLINATION><RA_OF_ASC_NODE>67.9516</RA_OF_ASC_NODE><ARG_OF_PERICENTER>193.1695</ARG_OF_PERICENTER><MEAN_ANOMALY>166.9087</MEAN_ANOMALY></meanElements><tleParameters><EPHEMERIS_TYPE>0</EPHEMERIS_TYPE><CLASSIFICATION_TYPE>U</CLASSIFICATION_TYPE><NORAD_CAT_ID>63736</NORAD_CAT_ID><ELEMENT_SET_NO>999</ELEMENT_SET_NO><REV_AT_EPOCH>3663</REV_AT_EPOCH><BSTAR>-.53941746E-3</BSTAR><MEAN_MOTION_DOT>-.4337E-4</MEAN_MOTION_DOT><MEAN_MOTION_DDOT>0</MEAN_MOTION_DDOT></tleParameters></data></segment></body></omm>
<omm id="CCSDS_OMM_VERS" version="2.0">
<header><CREATION_DATE/><ORIGINATOR/></header><body><segment><metadata><OBJECT_NAME>KUIPER-00023</OBJECT_NAME><OBJECT_ID>2025-088P</OBJECT_ID><CENTER_NAME>EARTH</CENTER_NAME><REF_FRAME>TEME</REF_FRAME><TIME_SYSTEM>UTC</TIME_SYSTEM><MEAN_ELEMENT_THEORY>SGP4</MEAN_ELEMENT_THEORY></metadata><data><meanElements><EPOCH>2025-12-26T04:14:54.107232</EPOCH><MEAN_MOTION>14.79899530</MEAN_MOTION><ECCENTRICITY>.00112324</ECCENTRICITY><INCLINATION>51.9014</INCLINATION><RA_OF_ASC_NODE>70.6177</RA_OF_ASC_NODE><ARG_OF_PERICENTER>214.9967</ARG_OF_PERICENTER><MEAN_ANOMALY>145.0258</MEAN_ANOMALY></meanElements><tleParameters><EPHEMERIS_TYPE>0</EPHEMERIS_TYPE><CLASSIFICATION_TYPE>U</CLASSIFICATION_TYPE><NORAD_CAT_ID>63737</NORAD_CAT_ID><ELEMENT_SET_NO>999</ELEMENT_SET_NO><REV_AT_EPOCH>3687</REV_AT_EPOCH><BSTAR>-.18734176E-2</BSTAR><MEAN_MOTION_DOT>-.14479E-3</MEAN_MOTION_DOT><MEAN_MOTION_DDOT>0</MEAN_MOTION_DDOT></tleParameters></data></segment></body></omm>
<omm id="CCSDS_OMM_VERS" version="2.0">
<header><CREATION_DATE/><ORIGINATOR/></header><body><segment><metadata><OBJECT_NAME>KUIPER-00024</OBJECT_NAME><OBJECT_ID>2025-088Q</OBJECT_ID><CENTER_NAME>EARTH</CENTER_NAME><REF_FRAME>TEME</REF_FRAME><TIME_SYSTEM>UTC</TIME_SYSTEM><MEAN_ELEMENT_THEORY>SGP4</MEAN_ELEMENT_THEORY></metadata><data><meanElements><EPOCH>2025-12-26T14:17:50.062848</EPOCH><MEAN_MOTION>14.79944511</MEAN_MOTION><ECCENTRICITY>.00009964</ECCENTRICITY><INCLINATION>51.9039</INCLINATION><RA_OF_ASC_NODE>56.3136</RA_OF_ASC_NODE><ARG_OF_PERICENTER>130.9757</ARG_OF_PERICENTER><MEAN_ANOMALY>229.1291</MEAN_ANOMALY></meanElements><tleParameters><EPHEMERIS_TYPE>0</EPHEMERIS_TYPE><CLASSIFICATION_TYPE>U</CLASSIFICATION_TYPE><NORAD_CAT_ID>63738</NORAD_CAT_ID><ELEMENT_SET_NO>999</ELEMENT_SET_NO><REV_AT_EPOCH>3723</REV_AT_EPOCH><BSTAR>.45159785E-3</BSTAR><MEAN_MOTION_DOT>.3224E-4</MEAN_MOTION_DOT><MEAN_MOTION_DDOT>0</MEAN_MOTION_DDOT></tleParameters></data></segment></body></omm>
<omm id="CCSDS_OMM_VERS" version="2.0">
<header><CREATION_DATE/><ORIGINATOR/></header><body><segment><metadata><OBJECT_NAME>KUIPER-00025</OBJECT_NAME><OBJECT_ID>2025-088R</OBJECT_ID><CENTER_NAME>EARTH</CENTER_NAME><REF_FRAME>TEME</REF_FRAME><TIME_SYSTEM>UTC</TIME_SYSTEM><MEAN_ELEMENT_THEORY>SGP4</MEAN_ELEMENT_THEORY></metadata><data><meanElements><EPOCH>2025-12-26T09:12:13.994784</EPOCH><MEAN_MOTION>14.80004954</MEAN_MOTION><ECCENTRICITY>.00007867</ECCENTRICITY><INCLINATION>51.9023</INCLINATION><RA_OF_ASC_NODE>65.7663</RA_OF_ASC_NODE><ARG_OF_PERICENTER>34.0635</ARG_OF_PERICENTER><MEAN_ANOMALY>326.0377</MEAN_ANOMALY></meanElements><tleParameters><EPHEMERIS_TYPE>0</EPHEMERIS_TYPE><CLASSIFICATION_TYPE>U</CLASSIFICATION_TYPE><NORAD_CAT_ID>63739</NORAD_CAT_ID><ELEMENT_SET_NO>999</ELEMENT_SET_NO><REV_AT_EPOCH>3694</REV_AT_EPOCH><BSTAR>.43206228E-3</BSTAR><MEAN_MOTION_DOT>.308E-4</MEAN_MOTION_DOT><MEAN_MOTION_DDOT>0</MEAN_MOTION_DDOT></tleParameters></data></segment></body></omm>

</ndm>
