KUIPER-00016            
1 63732U 25088J   25360.50767760  .00000461  00000+0  89804-4 0  9991
2 63732  51.9006  75.2075 0013028 182.0835 178.0076 14.79926895 36492
KUIPER-00018            
1 63733U 25088K   25360.58758253  .00006149  00000+0  83289-3 0  9996
2 63733  51.9021  63.8083 0012981 205.9187 154.1127 14.79992639 36664
KUIPER-00019            
1 63734U 25088L   25360.58874205  .00003667  00000+0  50974-3 0  9990
2 63734  51.8996  62.3490 0008655 215.9732 144.0649 14.79931632 36686
KUIPER-00020            
1 63735U 25088M   25360.58487134 -.00002318  00000+0 -27457-3 0  9996
2 63735  51.9047  66.3541 0008266 199.1229 160.9424 14.79955747 36836
KUIPER-00021            
1 63736U 25088N   25360.44815760 -.00004337  00000+0 -53942-3 0  9993
2 63736  51.9018  67.9516 0006961 193.1695 166.9087 14.79960494 36639
KUIPER-00023            
1 63737U 25088P   25360.17701513 -.00014479  00000+0 -18734-2 0  9991
2 63737  51.9014  70.6177 0011232 214.9967 145.0258 14.79899530 36877
KUIPER-00024            
1 63738U 25088Q   25360.59571832  .00003224  00000+0  45160-3 0  9995
2 63738  51.9039  56.3136 0000996 130.9757 229.1291 14.79944511 37232
KUIPER-00025            
1 63739U 25088R   25360.38349531  .00003080  00000+0  43206-3 0  9991
2 63739  51.9023  65.7663 0000786  34.0635 326.0377 14.80004954 36940
